P/2020 O1 (Lemmon-PANSTARRS),e,5.2259,175.9762,104.5258,2.644705,0.2291597,0.11932870,150.2086,02/17.0/2022,2000,g 15.5,4.0
# From MPEC 2022-CN4
C/2020 O2 (Amaral),h,08/28.6108/2021,71.7508,256.7572,10.3088,1.002337,4.862251,2000,8.0,3.2
# From MPEC 2020-SI8
P/2020 O3 (PANSTARRS),e,8.4422,266.8275,81.5846,4.650393,0.0982810,0.10391103,37.6191,02/17.0/2022,2000,g 12.0,4.0
# From MPEC 2021-BE3
C/2020 P1 (NEOWISE),h,10/20.2093/2020,45.0911,53.5165,8.8889,1.000272,0.341753,2000,14.0,3.2
# From MPEC 2022-CN4
C/2020 P3 (ATLAS),e,61.8859,19.4743,82.2519,36552,0.0000001,0.99981363,0.0000,04/20.8856/2021,2000,g  6.0,4.0
# From MPEC 2022-CN4
C/2020 PV6 (PANSTARRS),e,128.2391,329.1450,71.3850,41.81703,0.0036448,0.94510190,0.5248,02/17.0/2022,2000,g 10.0,4.0
# From MPEC 2021-N06
C/2020 Q1 (Borisov),e,142.9168,52.4144,9.9022,58.65712,0.0021939,0.97758035,0.0000,08/14.5630/2020,2000,g 14.0,4.0
# From MPEC 2022-C56
C/2020 R2 (PANSTARRS),e,53.2283,195.0934,211.7390,409.1904,0.0001191,0.98853378,0.0000,02/24.5245/2022,2000,g  9.0,4.0
# From MPEC 2022-CN4
C/2020 R4 (ATLAS),e,164.4624,323.2742,46.7206,98.78799,0.0010038,0.98958756,0.0000,03/01.9662/2021,2000,g 13.5,4.0
# From MPEC 2020-W26
P/2020 R5 (PANSTARRS),e,11.4515,272.9772,82.4535,4.983109,0.0886040,0.31471422,55.7373,02/17.0/2022,2000,g  9.5,6.0
# From MPEC 2021-Y10
C/2020 R6 (Rankin),e,82.8122,12.1780,272.0031,353.4128,0.0001483,0.99113956,0.0000,09/09.5424/2019,2000,g 11.0,4.0
# From MPEC 2022-A21
C/2020 R7 (ATLAS),h,09/16.2038/2022,114.8917,268.2805,347.8284,1.000003,2.956001,2000,7.0,3.2
# From MPEC 2021-BE3
P/2020 S1 (PANSTARRS),e,13.7333,129.4614,254.9290,5.985548,0.0673051,0.50750574,26.6413,02/17.0/2022,2000,g 14.0,4.0
# From MPEC 2021-BE3
C/2020 S2 (PANSTARRS),e,22.3994,197.6724,202.2957,10.19980,0.0302564,0.82782268,12.7681,02/17.0/2022,2000,g 17.0,4.0
# From MPEC 2022-C56
C/2020 S3 (Erasmus),e,19.9316,222.7889,349.9868,176.7865,0.0004193,0.99775494,0.0000,12/12.6713/2020,2000,g 13.5,3.2
# From MPEC 2022-CN4
C/2020 S4 (PANSTARRS),h,02/09.3381/2023,20.5731,117.7207,21.0099,1.000471,3.369440,2000,8.5,3.2
# From MPEC 2021-BE3
P/2020 S5 (PANSTARRS),e,12.3530,316.0016,53.1059,4.051501,0.1208593,0.33859314,67.3497,02/17.0/2022,2000,g 14.5,4.0
# From MPEC 2021-P47
P/2020 S6 (Leonard),e,15.4595,242.5530,176.6703,3.600125,0.1442872,0.47932354,64.9772,02/17.0/2022,2000,g 16.0,4.0
# From MPEC 2021-BE3
P/2020 S7 (PANSTARRS),e,16.0918,328.0200,40.4754,5.025903,0.0874748,0.41067846,39.8557,02/17.0/2022,2000,g 14.5,4.0
# From MPEC 2021-P47
C/2020 S8 (Lemmon),e,108.5245,24.0559,160.3288,275.3955,0.0002157,0.99141728,0.0000,04/10.9182/2021,2000,g 12.5,4.0
# From MPEC 2022-C56
C/2020 T2 (Palomar),e,27.8693,83.0428,150.4053,318.3263,0.0001735,0.99354459,0.0000,07/11.1846/2021,2000,g 11.0,3.2
# From MPEC 2021-N06
P/2020 T3 (PANSTARRS),e,7.2957,74.0071,357.0385,3.517482,0.1494020,0.59170195,58.6416,02/17.0/2022,2000,g 18.0,3.2
# From MPEC 2021-N06
C/2020 T4 (PANSTARRS),h,07/05.2616/2021,83.8166,50.6164,79.6103,1.000085,2.191890,2000,13.0,3.2
# From MPEC 2021-BE3
C/2020 T5 (Lemmon),e,66.5889,237.8593,90.3081,824.6968,0.0000416,0.99770882,0.0000,10/09.5999/2020,2000,g 16.0,4.0
# From MPEC 2021-N06
P/2020 U2 (PANSTARRS),e,6.4211,342.8991,84.6411,3.778128,0.1342113,0.51074569,56.1356,02/17.0/2022,2000,g 18.0,4.0
# From MPEC 2021-W31
C/2020 U3 (Rankin),e,30.1715,282.6764,124.2788,65.59946,0.0018550,0.96530026,0.6974,02/17.0/2022,2000,g 15.0,4.0
# From MPEC 2022-C56
C/2020 U4 (PANSTARRS),h,04/07.9535/2022,167.0359,120.0141,69.5308,1.001412,5.353689,2000,7.0,4.0
# From MPEC 2022-CN4
C/2020 U5 (PANSTARRS),e,97.2705,107.3371,75.4161,5961,0.0000021,0.99936989,0.0000,04/27.8820/2022,2000,g  8.0,4.0
# From MPEC 2022-CN4
C/2020 V2 (ZTF),h,05/08.4970/2023,131.6092,212.3622,162.4027,1.001186,2.228231,2000,4.9,4.0
# From MPEC 2021-N06
P/2020 V3 (PANSTARRS),e,23.0315,198.2627,249.3316,8.371946,0.0406878,0.25582643,15.1906,02/17.0/2022,2000,g  8.3,4.0
# From MPEC 2022-CN4
P/2020 V4 (Rankin),e,14.2429,203.4959,256.9928,9.351518,0.0344652,0.44944397,7.3826,02/17.0/2022,2000,g  9.0,4.0
# From MPEC 2021-BE3
P/2020 W1 (Rankin),e,10.7910,124.2641,264.9166,7.204655,0.0509664,0.26589704,34.7604,02/17.0/2022,2000,g 10.0,4.0
# From MPEC 2021-BE3
C/2020 W5 (Lemmon),h,11/30.0800/2020,88.5834,75.4995,24.4814,1.000753,3.364345,2000,15.0,4.0
# From MPEC 2021-P47
P/2020 X1 (ATLAS),e,31.6944,56.0167,323.3012,4.527516,0.1023090,0.36551234,58.9825,02/17.0/2022,2000,g 13.0,4.0
# From MPEC 2021-U31
C/2020 X2 (ATLAS),e,18.1883,105.4516,347.3412,16.41398,0.0148212,0.76678505,6.7907,02/17.0/2022,2000,g 10.6,4.0
# From MPEC 2021-S45
C/2020 X4 (Leonard),e,80.6352,161.8897,140.2925,42.32769,0.0035790,0.87673499,1.6356,02/17.0/2022,2000,g  9.0,4.0
# From MPEC 2022-C56
C/2020 Y2 (ATLAS),e,101.2967,26.5118,266.1000,1147,0.0000254,0.99726983,0.0000,06/17.6767/2022,2000,g  6.5,4.0
# From MPEC 2021-R75
C/2020 Y3 (ATLAS),e,83.1011,191.4346,342.0213,147.9014,0.0005480,0.98648580,0.0000,12/03.4367/2020,2000,g 13.5,4.0
# From MPEC 2022-C56
C/2021 A1 (Leonard),h,01/03.2990/2022,132.6864,255.8963,225.0926,1.000026,0.615256,2000,8.5,4.0
# From MPEC 2021-U31
C/2021 A2 (NEOWISE),e,106.9775,125.2327,338.8268,247.2247,0.0002536,0.99428594,0.0000,01/22.5972/2021,2000,g 13.5,4.0
# From MPEC 2021-R75
C/2021 A4 (NEOWISE),e,111.5575,307.0972,204.6956,43.02959,0.0034918,0.97336030,0.0000,03/20.0121/2021,2000,g 16.0,4.0
# From MPEC 2021-BE3
P/2021 A5 (PANSTARRS),e,18.1876,328.7680,61.2009,3.047070,0.1853021,0.13980687,85.6225,02/17.0/2022,2000,g 15.0,4.0
# From MPEC 2022-CN4
C/2021 A6 (PANSTARRS),e,75.6116,164.0793,351.6941,10828,0.0000009,0.99926774,0.0000,05/04.1592/2021,2000,g  7.0,4.0
# From MPEC 2022-CN4
C/2021 A7 (NEOWISE),e,78.1497,154.5178,356.0515,5438,0.0000025,0.99963819,0.0000,07/15.2983/2021,2000,g 10.0,4.0
# From MPEC 2022-CN4
C/2021 A9 (PANSTARRS),h,12/01.3875/2023,158.0258,314.8430,211.4602,1.003809,7.759666,2000,6.0,4.0
# From MPEC 2021-N06
C/2021 A10 (NEOWISE),e,151.5848,188.3804,82.3960,98.47819,0.0010085,0.98709696,0.0000,03/15.3561/2021,2000,g 19.0,4.0
# From MPEC 2022-CN4
C/2021 B2 (PANSTARRS),e,38.0910,120.5531,334.9678,351.1660,0.0001498,0.99284416,0.0000,05/04.2686/2021,2000,g 14.0,4.0
# From MPEC 2021-N06
C/2021 B3 (NEOWISE),e,119.4830,67.2866,293.5547,34.84924,0.0047909,0.93801316,1.6438,02/17.0/2022,2000,g 13.5,4.0
# From MPEC 2022-C56
C/2021 C1 (Rankin),e,143.0437,186.8957,336.2986,52788,0.0000001,0.99993406,0.0000,12/07.1003/2020,2000,g 11.5,4.0
# From MPEC 2021-U31
P/2021 C2 (PANSTARRS),e,21.9282,66.4801,78.7801,9.536721,0.0334661,0.48727259,11.9774,02/17.0/2022,2000,g 12.0,4.0
# From MPEC 2021-N06
C/2021 C3 (Catalina),e,122.1644,181.9248,357.1331,63.03266,0.0019695,0.96389128,0.7279,02/17.0/2022,2000,g 14.0,4.0
# From MPEC 2022-CN4
C/2021 C4 (ATLAS),e,132.8488,194.2755,320.2316,16418,0.0000005,0.99972566,0.0000,01/17.1004/2021,2000,g  9.0,4.0
# From MPEC 2022-CN4
C/2021 C5 (PANSTARRS),e,50.7849,323.6900,270.9178,4290,0.0000035,0.99924427,0.0000,02/11.0473/2023,2000,g  9.0,4.0
# From MPEC 2022-C56
C/2021 C6 (Lemmon),h,11/13.3128/2021,164.6257,332.1555,203.5595,1.001642,3.271204,2000,12.0,4.0
# From MPEC 2021-N06
C/2021 D1 (SWAN),e,31.4564,311.2691,72.2342,97.99004,0.0010161,0.99079650,0.0000,02/27.6342/2021,2000,g 13.0,4.0
# From MPEC 2022-C56
C/2021 D2 (ZTF),h,02/03.9820/2022,83.8305,305.6789,125.0301,1.001456,2.946301,2000,9.0,4.0
# From MPEC 2021-N06
A/2021 E2,e,167.4882,190.8177,342.4522,235.0083,0.0002736,0.99026559,0.0000,12/10.4649/2020,2000,g 15.0,2.0
# From MPEC 2022-A21
C/2021 E3 (ZTF),h,06/11.9069/2022,112.5560,104.4683,228.8456,1.000849,1.777426,2000,8.5,4.0
# From MPEC 2022-CN4
A/2021 E4,e,116.3608,171.1735,48.2788,695.6514,0.0000537,0.99327823,0.0000,04/25.3344/2022,2000,g 13.5,2.0
# From MPEC 2022-CN4
C/2021 F1 (Lemmon-PANSTARRS),e,107.3244,203.4515,146.8228,236.2056,0.0002715,0.99578552,0.0000,04/06.8737/2022,2000,g 13.5,4.0
# From MPEC 2021-J72
C/2021 G1 (Leonard),e,131.5629,270.6974,107.4764,75.09458,0.0015146,0.95440987,0.3178,02/17.0/2022,2000,g 14.0,4.0
# From MPEC 2022-CN4
C/2021 G2 (ATLAS),e,48.4729,221.1208,343.3704,3774,0.0000043,0.99868075,0.0000,09/10.0611/2024,2000,g  5.5,4.0
# From MPEC 2022-C56
C/2021 G3 (PANSTARRS),h,10/16.5567/2021,102.8552,147.4053,10.3992,1.000156,5.177991,2000,10.5,4.0
# From MPEC 2021-Y10
P/2021 HS (PANSTARRS),e,12.1710,262.3906,46.0854,4.194308,0.1147397,0.81010568,22.3306,02/17.0/2022,2000,g 22.0,4.0
# From MPEC 2022-C56
C/2021 J1 (Maury-Attard),e,92.7186,88.3226,147.3303,26.44958,0.0072456,0.93418481,2.6268,02/17.0/2022,2000,g 15.5,4.0
# From MPEC 2022-CN4
C/2021 J2 (PANSTARRS),e,156.2092,23.3295,172.0575,117.3064,0.0007757,0.95987801,0.1145,02/17.0/2022,2000,g 12.0,4.0
# From MPEC 2021-S45
P/2021 J3 (ATLAS),e,14.5492,111.2055,125.9736,8.942200,0.0368585,0.45027111,35.3051,02/17.0/2022,2000,g  7.0,4.0
# From MPEC 2022-C56
C/2021 K1 (ATLAS),e,16.2758,140.9042,184.2816,12.70493,0.0217644,0.80341366,6.2795,02/17.0/2022,2000,g 11.0,4.0
# From MPEC 2021-R75
C/2021 K2 (MASTER),h,09/09.2828/2021,100.8375,282.2482,343.3373,1.000582,5.466762,2000,8.0,4.0
# From MPEC 2021-U31
C/2021 K3 (Catalina),h,02/02.6983/2022,134.7764,114.4509,181.9966,1.003272,5.229846,2000,10.0,4.0
# From MPEC 2021-W31
P/2021 L2 (Leonard),e,21.0690,266.6595,51.5224,4.051018,0.1208809,0.52151076,25.0867,02/17.0/2022,2000,g 17.0,4.0
# From MPEC 2021-WD8
C/2021 L3 (Borisov),h,02/14.0192/2022,78.5798,344.9682,91.6152,1.001294,8.457341,2000,6.0,4.0
# From MPEC 2021-R75
P/2021 L4 (PANSTARRS),e,16.9614,243.2243,234.5828,3.164970,0.1750450,0.11855712,157.0532,02/17.0/2022,2000,g 13.5,4.0
# From MPEC 2021-P47
P/2021 N1 (ZTF),e,11.5054,301.1657,21.1964,2.977122,0.1918710,0.67674066,49.0143,02/17.0/2022,2000,g 19.0,4.0
# From MPEC 2022-CN4
P/2021 N2 (Fuls),e,13.0629,221.7425,177.3465,6.932766,0.0539938,0.45236667,5.1667,02/17.0/2022,2000,g  9.5,4.0
# From MPEC 2021-W31
C/2021 N3 (PANSTARRS),e,26.7495,337.4945,304.6487,161.0621,0.0004822,0.96455429,0.2636,02/17.0/2022,2000,g  8.5,4.0
# From MPEC 2022-A21
